IRIDIUM 144             
1 43249U 18030A   25274.38939082 -.00000242  00000+0 -93559-4 0  9990
2 43249  86.3986  38.5726 0002091  90.0279 270.1157 14.34217816393043
IRIDIUM 149             
1 43250U 18030B   25274.39573242  .00000281  00000+0  93195-4 0  9992
2 43250  86.3984  38.5399 0002069  89.6437 270.4995 14.34219322393063
IRIDIUM 157             
1 43251U 18030C   25274.41475639  .00000547  00000+0  18815-3 0  9997
2 43251  86.3984  38.5795 0001939  98.9412 261.2003 14.34218915393048
IRIDIUM 140             
1 43252U 18030D   25274.43378733  .00000559  00000+0  19263-3 0  9998
2 43252  86.3988  38.5849 0002313  89.4319 270.7141 14.34217617393104
IRIDIUM 145             
1 43253U 18030E   25274.42110341  .00000675  00000+0  23376-3 0  9996
2 43253  86.3984  38.5626 0002110  81.8852 278.2583 14.34221008393031
IRIDIUM 146             
1 43254U 18030F   25274.26253855  .00000199  00000+0  63835-4 0  9993
2 43254  86.3985  38.6422 0002092  85.3754 274.7681 14.34218944393021
IRIDIUM 148             
1 43255U 18030G   25274.44012988  .00000280  00000+0  92815-4 0  9995
2 43255  86.3987  38.6071 0001909  92.4063 267.7351 14.34219327393080
IRIDIUM 142             
1 43256U 18030H   25274.40841777  .00000046  00000+0  94876-5 0  9998
2 43256  86.3982  38.5188 0002051  80.4676 279.6751 14.34218128393040
